{"spkid": "50753587", "covariance": {"epoch": "2457727.5", "labels": ["e", "q", "tp", "node", "peri", "i"], "data": [["3.664570094202063E-13", "-3.896806085535883E-13", "5.016082098677143E-13", "-9.623910442230637E-14", "3.813658832482053E-11", "1.372419652493791E-11"], ["-3.896806085535883E-13", "4.144382649696239E-13", "-5.44048569739159E-13", "1.054171744437437E-13", "-4.056262427100861E-11", "-1.462371278709649E-11"], ["5.016082098677143E-13", "-5.44048569739159E-13", "1.457864521572801E-10", "7.673472293188176E-12", "1.264625078582763E-10", "1.673769530677146E-10"], ["-9.623910442230637E-14", "1.054171744437437E-13", "7.673472293188176E-12", "2.311897848475822E-10", "-2.234396045185104E-10", "-2.973059512143303E-10"], ["3.813658832482053E-11", "-4.056262427100861E-11", "1.264625078582763E-10", "-2.234396045185104E-10", "4.235026677799011E-9", "1.741786715228309E-9"], ["1.372419652493791E-11", "-1.462371278709649E-11", "1.673769530677146E-10", "-2.973059512143303E-10", "1.741786715228309E-9", "1.30740912533247E-9"]], "elements": [{"label": "e", "title": "eccentricity", "value": ".3052690262649327", "units": null, "name": "e", "sigma": 6.0535692729183e-07}, {"title": "perihelion distance", "value": ".791534332798448", "units": "au", "sigma": 6.43768797760208e-07, "name": "q", "label": "q"}, {"label": "tp", "title": "time of perihelion passage", "value": "2457603.171058042008", "units": "TDB", "name": "tp", "sigma": 1.20742060673686e-05}, {"label": "node", "name": "om", "sigma": 1.52049263348292e-05, "units": "deg", "title": "longitude of the ascending node", "value": "71.94537015466298"}, {"label": "peri", "sigma": 6.50770825851852e-05, "name": "w", "units": "deg", "title": "argument of perihelion", "value": "258.8580949610621"}, {"name": "i", "sigma": 3.6158112856349e-05, "title": "inclination", "value": "21.2135303889857", "units": "deg", "label": "i"}]}, "elements": [{"name": "e", "sigma": "6.0523E-7", "units": null, "value": ".3052361929598746", "title": "eccentricity", "label": "e"}, {"label": "a", "name": "a", "sigma": "6.6815E-8", "units": "au", "title": "semi-major axis", "value": "1.139214220361973"}, {"label": "q", "name": "q", "sigma": "6.4377E-7", "title": "perihelion distance", "value": ".7914848087729328", "units": "au"}, {"units": "deg", "value": "21.21358214630293", "title": "inclination; angle with respect to x-y ecliptic plane", "name": "i", "sigma": "3.6163E-5", "label": "i"}, {"label": "node", "units": "deg", "title": "longitude of the ascending node", "value": "71.91235466346822", "sigma": "1.5193E-5", "name": "om"}, {"sigma": "6.5214E-5", "name": "w", "title": "argument of perihelion", "value": "258.8585070948371", "units": "deg", "label": "peri"}, {"sigma": ".00025834", "name": "ma", "title": "mean anomaly", "value": "35.56572847278518", "units": "deg", "label": "M"}, {"label": "tp", "sigma": ".00031486", "name": "tp", "title": "time of perihelion passage", "value": "2461156.623120741829", "units": "TDB"}, {"name": "per", "sigma": "3.9072E-5", "units": "d", "value": "444.1263320398025", "title": "sidereal orbital period", "label": "period"}, {"label": "n", "title": "mean motion", "value": ".8105801751194903", "units": "deg/d", "sigma": "7.1311E-8", "name": "n"}, {"name": "ad", "sigma": "8.7209E-8", "units": "au", "title": "aphelion distance", "value": "1.486943631951013", "label": "Q"}], "epoch": "2461200.5"}